$$SOE
2460728.500000000, A.D. 2025-Feb-22 00:00:00.0000, 3.540061691311875E+07, 2.730535803297999E+08, 6.188905754481708E+07,
2460735.500000000, A.D. 2025-Mar-01 00:00:00.0000, 2.260439914229059E+07, 2.740060983427781E+08, 5.891107273337196E+07,
2460742.500000000, A.D. 2025-Mar-08 00:00:00.0000, 9.758907145815851E+06, 2.743604608788404E+08, 5.580445175253534E+07,
2460749.500000000, A.D. 2025-Mar-15 00:00:00.0000, -3.108041671219093E+06, 2.741092733271019E+08, 5.257463191049719E+07,
2460756.500000000, A.D. 2025-Mar-22 00:00:00.0000, -1.596796242885175E+07, 2.732464059738760E+08, 4.922746211260736E+07,
2460763.500000000, A.D. 2025-Mar-29 00:00:00.0000, -2.879175722662997E+07, 2.717670653944209E+08, 4.576920378638986E+07,
2460770.500000000, A.D. 2025-Apr-05 00:00:00.0000, -4.154977502631311E+07, 2.696678660591400E+08, 4.220652983156590E+07,
2460777.500000000, A.D. 2025-Apr-12 00:00:00.0000, -5.421187912122054E+07, 2.669469015640651E+08, 3.854652158380805E+07,
2460784.500000000, A.D. 2025-Apr-19 00:00:00.0000, -6.674752255754294E+07, 2.636038138330924E+08, 3.479666354255155E+07,
2460791.500000000, A.D. 2025-Apr-26 00:00:00.0000, -7.912583134067810E+07, 2.596398592606665E+08, 3.096483563554190E+07,
2460798.500000000, A.D. 2025-May-03 00:00:00.0000, -9.131569532880095E+07, 2.550579709314685E+08, 2.705930283659677E+07,
2460805.500000000, A.D. 2025-May-10 00:00:00.0000, -1.032858667011580E+08, 2.498628159947703E+08, 2.308870197497147E+07,
2460812.500000000, A.D. 2025-May-17 00:00:00.0000, -1.150050657699520E+08, 2.440608471830792E+08, 1.906202558962426E+07,
2460819.500000000, A.D. 2025-May-24 00:00:00.0000, -1.264420936470005E+08, 2.376603474254506E+08, 1.498860269276890E+07,
2460826.500000000, A.D. 2025-May-31 00:00:00.0000, -1.375659509041540E+08, 2.306714668602578E+08, 1.087807634464678E+07,
2460833.500000000, A.D. 2025-Jun-07 00:00:00.0000, -1.483459620541163E+08, 2.231062524553818E+08, 6.740378124804363E+06,
2460840.500000000, A.D. 2025-Jun-14 00:00:00.0000, -1.587519075054591E+08, 2.149786686113094E+08, 2.585699650852919E+06,
2460847.500000000, A.D. 2025-Jun-21 00:00:00.0000, -1.687541609018758E+08, 2.063046045609573E+08, -1.575539203064084E+06,
2460854.500000000, A.D. 2025-Jun-28 00:00:00.0000, -1.783238277073004E+08, 1.971018694541488E+08, -5.732725447277844E+06,
2460861.500000000, A.D. 2025-Jul-05 00:00:00.0000, -1.874328854445017E+08, 1.873901765278977E+08, -9.875091027292736E+06,
2460868.500000000, A.D. 2025-Jul-12 00:00:00.0000, -1.960543255292652E+08, 1.771911149391692E+08, -1.399175355689704E+07,
2460875.500000000, A.D. 2025-Jul-19 00:00:00.0000, -2.041622951409584E+08, 1.665281081895508E+08, -1.807175955849233E+07,
2460882.500000000, A.D. 2025-Jul-26 00:00:00.0000, -2.117322374652030E+08, 1.554263587480972E+08, -2.210412993991317E+07,
2460889.500000000, A.D. 2025-Aug-02 00:00:00.0000, -2.187410287235312E+08, 1.439127787413365E+08, -2.607790736532892E+07,
2460896.500000000, A.D. 2025-Aug-09 00:00:00.0000, -2.251671104049992E+08, 1.320159067421501E+08, -2.998220512823800E+07,
2460903.500000000, A.D. 2025-Aug-16 00:00:00.0000, -2.309906150480433E+08, 1.197658108504734E+08, -3.380625709947044E+07,
2460910.500000000, A.D. 2025-Aug-23 00:00:00.0000, -2.361934837231933E+08, 1.071939785549312E+08, -3.753946829855411E+07,
2460917.500000000, A.D. 2025-Aug-30 00:00:00.0000, -2.407595733816774E+08, 9.433319477928720E+07, -4.117146555273732E+07,
2460924.500000000, A.D. 2025-Sep-06 00:00:00.0000, -2.446747540695745E+08, 8.121741001572502E+07, -4.469214750384272E+07,
2460931.500000000, A.D. 2025-Sep-13 00:00:00.0000, -2.479269963880264E+08, 6.788159717050581E+07, -4.809173347854033E+07,
2460938.500000000, A.D. 2025-Sep-20 00:00:00.0000, -2.505064447821891E+08, 5.436159678555652E+07, -5.136081112476268E+07,
2460945.500000000, A.D. 2025-Sep-27 00:00:00.0000, -2.524054746092080E+08, 4.069395521567050E+07, -5.449038212499095E+07,
2460952.500000000, A.D. 2025-Oct-04 00:00:00.0000, -2.536187342224332E+08, 2.691575788824926E+07, -5.747190524792005E+07,
2460959.500000000, A.D. 2025-Oct-11 00:00:00.0000, -2.541431719113302E+08, 1.306445840876190E+07, -6.029733632001531E+07,
2460966.500000000, A.D. 2025-Oct-18 00:00:00.0000, -2.539780471072791E+08, -8.222949683462791E+05, -6.295916474905074E+07,
2460973.500000000, A.D. 2025-Oct-25 00:00:00.0000, -2.531249256421537E+08, -1.470683366063187E+07, -6.545044624357738E+07,
2460980.500000000, A.D. 2025-Nov-01 00:00:00.0000, -2.515876591866120E+08, -2.855164202093285E+07, -6.776483141952720E+07,
2460987.500000000, A.D. 2025-Nov-08 00:00:00.0000, -2.493723492309430E+08, -4.231952777341787E+07, -6.989659004584436E+07,
2460994.500000000, A.D. 2025-Nov-15 00:00:00.0000, -2.464872960744536E+08, -5.597378795836857E+07, -7.184063075124399E+07,
2461001.500000000, A.D. 2025-Nov-22 00:00:00.0000, -2.429429332396066E+08, -6.947836856669872E+07, -7.359251608320129E+07,
2461008.500000000, A.D. 2025-Nov-29 00:00:00.0000, -2.387517484764563E+08, -8.279801528177536E+07, -7.514847276993702E+07,
2461015.500000000, A.D. 2025-Dec-06 00:00:00.0000, -2.339281948180583E+08, -9.589841417744808E+07, -7.650539703576227E+07,
2461022.500000000, A.D. 2025-Dec-13 00:00:00.0000, -2.284885925747049E+08, -1.087463246233543E+08, -7.766085541167638E+07,
2461029.500000000, A.D. 2025-Dec-20 00:00:00.0000, -2.224510201923600E+08, -1.213097024340132E+08, -7.861308146206671E+07,
2461036.500000000, A.D. 2025-Dec-27 00:00:00.0000, -2.158351965188483E+08, -1.335578099233522E+08, -7.936096834006892E+07,
2461043.500000000, A.D. 2026-Jan-03 00:00:00.0000, -2.086623574248514E+08, -1.454613129424987E+08, -7.990405734543294E+07,
2461050.500000000, A.D. 2026-Jan-10 00:00:00.0000, -2.009551281554101E+08, -1.569923652579027E+08, -8.024252284805027E+07,
2461057.500000000, A.D. 2026-Jan-17 00:00:00.0000, -1.927373926452485E+08, -1.681246802428558E+08, -8.037715394408561E+07,
2461064.500000000, A.D. 2026-Jan-24 00:00:00.0000, -1.840341611400747E+08, -1.788335899221137E+08, -8.030933321472754E+07,
2461071.500000000, A.D. 2026-Jan-31 00:00:00.0000, -1.748714374450335E+08, -1.890960916043195E+08, -8.004101296696058E+07,
2461078.500000000, A.D. 2026-Feb-07 00:00:00.0000, -1.652760869876215E+08, -1.988908825379188E+08, -7.957468934805259E+07,
2461085.500000000, A.D. 2026-Feb-14 00:00:00.0000, -1.552757065824131E+08, -2.081983831167164E+08, -7.891337473885624E+07,
2461092.500000000, A.D. 2026-Feb-21 00:00:00.0000, -1.448984965324474E+08, -2.170007486796179E+08, -7.806056878757200E+07,
2461099.500000000, A.D. 2026-Feb-28 00:00:00.0000, -1.341731370485532E+08, -2.252818694605045E+08, -7.702022824910004E+07,
2461106.500000000, A.D. 2026-Mar-07 00:00:00.0000, -1.231286718103548E+08, -2.330273614155815E+08, -7.579673594047335E+07,
2461113.500000000, A.D. 2026-Mar-14 00:00:00.0000, -1.117943965303427E+08, -2.402245510914644E+08, -7.439486957808487E+07,
2461120.500000000, A.D. 2026-Mar-21 00:00:00.0000, -1.001997512536802E+08, -2.468624524990334E+08, -7.281977072057858E+07,
2461127.500000000, A.D. 2026-Mar-28 00:00:00.0000, -8.837421879831327E+07, -2.529317358366938E+08, -7.107691381671613E+07,
2461134.500000000, A.D. 2026-Apr-04 00:00:00.0000, -7.634723021923427E+07, -2.584246898954497E+08, -6.917207561870804E+07,
2461141.500000000, A.D. 2026-Apr-11 00:00:00.0000, -6.414807719700358E+07, -2.633351793537788E+08, -6.711130522154769E+07,
2461148.500000000, A.D. 2026-Apr-18 00:00:00.0000, -5.180583126591717E+07, -2.676585977873008E+08, -6.490089491950572E+07,
2461155.500000000, A.D. 2026-Apr-25 00:00:00.0000, -3.934926982131767E+07, -2.713918171630384E+08, -6.254735203307754E+07,
2461162.500000000, A.D. 2026-May-02 00:00:00.0000, -2.680680878773555E+07, -2.745331345938193E+08, -6.005737183808632E+07,
2461169.500000000, A.D. 2026-May-09 00:00:00.0000, -1.420644167510834E+07, -2.770822171156703E+08, -5.743781171389763E+07,
2461176.500000000, A.D. 2026-May-16 00:00:00.0000, -1.575684442371813E+06, -2.790400449899207E+08, -5.469566660794626E+07,
2461183.500000000, A.D. 2026-May-23 00:00:00.0000, 1.105847413286575E+07, -2.804088530902711E+08, -5.183804578881496E+07,
2461190.500000000, A.D. 2026-May-30 00:00:00.0000, 2.366961478624582E+07, -2.811920705791892E+08, -4.887215070208971E+07,
2461197.500000000, A.D. 2026-Jun-06 00:00:00.0000, 3.623192279831881E+07, -2.813942626129068E+08, -4.580525418107906E+07,
2461204.500000000, A.D. 2026-Jun-13 00:00:00.0000, 4.872021972843346E+07, -2.810210742919824E+08, -4.264468133237991E+07,
2461211.500000000, A.D. 2026-Jun-20 00:00:00.0000, 6.110999169615339E+07, -2.800791742994844E+08, -3.939779179796445E+07,
2461218.500000000, A.D. 2026-Jun-27 00:00:00.0000, 7.337741286126101E+07, -2.785761988821185E+08, -3.607196323863322E+07,
2461225.500000000, A.D. 2026-Jul-04 00:00:00.0000, 8.549936445068777E+07, -2.765206972127074E+08, -3.267457606262265E+07,
2461232.500000000, A.D. 2026-Jul-11 00:00:00.0000, 9.745344992965780E+07, -2.739220784795076E+08, -2.921299938360319E+07,
2461239.500000000, A.D. 2026-Jul-18 00:00:00.0000, 1.092180067463298E+08, -2.707905608407193E+08, -2.569457815736511E+07,
2461246.500000000, A.D. 2026-Jul-25 00:00:00.0000, 1.207721150071314E+08, -2.671371223593494E+08, -2.212662143975681E+07,
2461253.500000000, A.D. 2026-Aug-01 00:00:00.0000, 1.320956034646877E+08, -2.629734540516121E+08, -1.851639171740763E+07,
2461260.500000000, A.D. 2026-Aug-08 00:00:00.0000, 1.431690533635354E+08, -2.583119151566260E+08, -1.487109527988973E+07,
2461267.500000000, A.D. 2026-Aug-15 00:00:00.0000, 1.539738008699457E+08, -2.531654902414292E+08, -1.119787357839094E+07,
2461274.500000000, A.D. 2026-Aug-22 00:00:00.0000, 1.644919376061346E+08, -2.475477469663100E+08, -7.503795338812768E+06,
2461281.500000000, A.D. 2026-Aug-29 00:00:00.0000, 1.747063072485323E+08, -2.414727958986295E+08, -3.795849263288870E+06,
2461288.500000000, A.D. 2026-Sep-05 00:00:00.0000, 1.846005005453113E+08, -2.349552552208828E+08, -8.093768072974682E+04,
$$EOE